<?xml version="1.0" encoding="UTF-8"?>
<ndm xmlns:xsi="http://www.w3.org/2001/XMLSchema-instance" xsi:noNamespaceSchemaLocation="https://sanaregistry.org/r/ndmxml_unqualified/ndmxml-2.0.0-master-2.0.xsd">
<omm id="CCSDS_OMM_VERS" version="2.0">
<header><CREATION_DATE/><ORIGINATOR/></header><body><segment><metadata><OBJECT_NAME>KUIPER-00079</OBJECT_NAME><OBJECT_ID>2025-151L</OBJECT_ID><CENTER_NAME>EARTH</CENTER_NAME><REF_FRAME>TEME</REF_FRAME><TIME_SYSTEM>UTC</TIME_SYSTEM><MEAN_ELEMENT_THEORY>SGP4</MEAN_ELEMENT_THEORY></metadata><data><meanElements><EPOCH>2025-10-31T17:58:10.036128</EPOCH><MEAN_MOTION>14.79950178</MEAN_MOTION><ECCENTRICITY>.0012286</ECCENTRICITY><INCLINATION>51.8982</INCLINATION><RA_OF_ASC_NODE>150.4482</RA_OF_ASC_NODE><ARG_OF_PERICENTER>168.0711</ARG_OF_PERICENTER><MEAN_ANOMALY>192.0544</MEAN_ANOMALY></meanElements><tleParameters><EPHEMERIS_TYPE>0</EPHEMERIS_TYPE><CLASSIFICATION_TYPE>U</CLASSIFICATION_TYPE><NORAD_CAT_ID>64826</NORAD_CAT_ID><ELEMENT_SET_NO>999</ELEMENT_SET_NO><REV_AT_EPOCH>1741</REV_AT_EPOCH><BSTAR>.17062E-3</BSTAR><MEAN_MOTION_DOT>.1079E-4</MEAN_MOTION_DOT><MEAN_MOTION_DDOT>0</MEAN_MOTION_DDOT></tleParameters></data></segment></body></omm>
<omm id="CCSDS_OMM_VERS" version="2.0">
<header><CREATION_DATE/><ORIGINATOR/></header><body><segment><metadata><OBJECT_NAME>KUIPER-00080</OBJECT_NAME><OBJECT_ID>2025-151M</OBJECT_ID><CENTER_NAME>EARTH</CENTER_NAME><REF_FRAME>TEME</REF_FRAME><TIME_SYSTEM>UTC</TIME_SYSTEM><MEAN_ELEMENT_THEORY>SGP4</MEAN_ELEMENT_THEORY></metadata><data><meanElements><EPOCH>2025-10-31T17:51:44.799264</EPOCH><MEAN_MOTION>14.79915894</MEAN_MOTION><ECCENTRICITY>.0005448</ECCENTRICITY><INCLINATION>51.8989</INCLINATION><RA_OF_ASC_NODE>150.7694</RA_OF_ASC_NODE><ARG_OF_PERICENTER>184.3178</ARG_OF_PERICENTER><MEAN_ANOMALY>175.7738</MEAN_ANOMALY></meanElements><tleParameters><EPHEMERIS_TYPE>0</EPHEMERIS_TYPE><CLASSIFICATION_TYPE>U</CLASSIFICATION_TYPE><NORAD_CAT_ID>64827</NORAD_CAT_ID><ELEMENT_SET_NO>999</ELEMENT_SET_NO><REV_AT_EPOCH>1621</REV_AT_EPOCH><BSTAR>.62502E-3</BSTAR><MEAN_MOTION_DOT>.4545E-4</MEAN_MOTION_DOT><MEAN_MOTION_DDOT>0</MEAN_MOTION_DDOT></tleParameters></data></segment></body></omm>
<omm id="CCSDS_OMM_VERS" version="2.0">
<header><CREATION_DATE/><ORIGINATOR/></header><body><segment><metadata><OBJECT_NAME>KUIPER-00082</OBJECT_NAME><OBJECT_ID>2025-151N</OBJECT_ID><CENTER_NAME>EARTH</CENTER_NAME><REF_FRAME>TEME</REF_FRAME><TIME_SYSTEM>UTC</TIME_SYSTEM><MEAN_ELEMENT_THEORY>SGP4</MEAN_ELEMENT_THEORY></metadata><data><meanElements><EPOCH>2025-10-31T20:00:03.000384</EPOCH><MEAN_MOTION>14.79956566</MEAN_MOTION><ECCENTRICITY>.0004586</ECCENTRICITY><INCLINATION>51.8998</INCLINATION><RA_OF_ASC_NODE>137.8844</RA_OF_ASC_NODE><ARG_OF_PERICENTER>202.5433</ARG_OF_PERICENTER><MEAN_ANOMALY>20.6634</MEAN_ANOMALY></meanElements><tleParameters><EPHEMERIS_TYPE>0</EPHEMERIS_TYPE><CLASSIFICATION_TYPE>U</CLASSIFICATION_TYPE><NORAD_CAT_ID>64828</NORAD_CAT_ID><ELEMENT_SET_NO>999</ELEMENT_SET_NO><REV_AT_EPOCH>373</REV_AT_EPOCH><BSTAR>-.39529E-3</BSTAR><MEAN_MOTION_DOT>-.3236E-4</MEAN_MOTION_DOT><MEAN_MOTION_DDOT>0</MEAN_MOTION_DDOT></tleParameters></data></segment></body></omm>
<omm id="CCSDS_OMM_VERS" version="2.0">
<header><CREATION_DATE/><ORIGINATOR/></header><body><segment><metadata><OBJECT_NAME>KUIPER-00083</OBJECT_NAME><OBJECT_ID>2025-151P</OBJECT_ID><CENTER_NAME>EARTH</CENTER_NAME><REF_FRAME>TEME</REF_FRAME><TIME_SYSTEM>UTC</TIME_SYSTEM><MEAN_ELEMENT_THEORY>SGP4</MEAN_ELEMENT_THEORY></metadata><data><meanElements><EPOCH>2025-10-31T20:25:18.343200</EPOCH><MEAN_MOTION>14.79914184</MEAN_MOTION><ECCENTRICITY>.0010766</ECCENTRICITY><INCLINATION>51.8996</INCLINATION><RA_OF_ASC_NODE>145.3058</RA_OF_ASC_NODE><ARG_OF_PERICENTER>174.7566</ARG_OF_PERICENTER><MEAN_ANOMALY>185.3511</MEAN_ANOMALY></meanElements><tleParameters><EPHEMERIS_TYPE>0</EPHEMERIS_TYPE><CLASSIFICATION_TYPE>U</CLASSIFICATION_TYPE><NORAD_CAT_ID>64829</NORAD_CAT_ID><ELEMENT_SET_NO>999</ELEMENT_SET_NO><REV_AT_EPOCH>1748</REV_AT_EPOCH><BSTAR>-.35934E-3</BSTAR><MEAN_MOTION_DOT>-.2964E-4</MEAN_MOTION_DOT><MEAN_MOTION_DDOT>0</MEAN_MOTION_DDOT></tleParameters></data></segment></body></omm>
<omm id="CCSDS_OMM_VERS" version="2.0">
<header><CREATION_DATE/><ORIGINATOR/></header><body><segment><metadata><OBJECT_NAME>KUIPER-00084</OBJECT_NAME><OBJECT_ID>2025-151Q</OBJECT_ID><CENTER_NAME>EARTH</CENTER_NAME><REF_FRAME>TEME</REF_FRAME><TIME_SYSTEM>UTC</TIME_SYSTEM><MEAN_ELEMENT_THEORY>SGP4</MEAN_ELEMENT_THEORY></metadata><data><meanElements><EPOCH>2025-10-31T20:09:50.921280</EPOCH><MEAN_MOTION>14.79946893</MEAN_MOTION><ECCENTRICITY>.001212</ECCENTRICITY><INCLINATION>51.8988</INCLINATION><RA_OF_ASC_NODE>155.3397</RA_OF_ASC_NODE><ARG_OF_PERICENTER>146.6408</ARG_OF_PERICENTER><MEAN_ANOMALY>213.5320</MEAN_ANOMALY></meanElements><tleParameters><EPHEMERIS_TYPE>0</EPHEMERIS_TYPE><CLASSIFICATION_TYPE>U</CLASSIFICATION_TYPE><NORAD_CAT_ID>64830</NORAD_CAT_ID><ELEMENT_SET_NO>999</ELEMENT_SET_NO><REV_AT_EPOCH>1615</REV_AT_EPOCH><BSTAR>.61275E-3</BSTAR><MEAN_MOTION_DOT>.4457E-4</MEAN_MOTION_DOT><MEAN_MOTION_DDOT>0</MEAN_MOTION_DDOT></tleParameters></data></segment></body></omm>
<omm id="CCSDS_OMM_VERS" version="2.0">
<header><CREATION_DATE/><ORIGINATOR/></header><body><segment><metadata><OBJECT_NAME>KUIPER-00085</OBJECT_NAME><OBJECT_ID>2025-151R</OBJECT_ID><CENTER_NAME>EARTH</CENTER_NAME><REF_FRAME>TEME</REF_FRAME><TIME_SYSTEM>UTC</TIME_SYSTEM><MEAN_ELEMENT_THEORY>SGP4</MEAN_ELEMENT_THEORY></metadata><data><meanElements><EPOCH>2025-10-31T20:00:03.000384</EPOCH><MEAN_MOTION>14.79539698</MEAN_MOTION><ECCENTRICITY>.0007664</ECCENTRICITY><INCLINATION>51.9015</INCLINATION><RA_OF_ASC_NODE>137.8917</RA_OF_ASC_NODE><ARG_OF_PERICENTER>176.0379</ARG_OF_PERICENTER><MEAN_ANOMALY>228.6531</MEAN_ANOMALY></meanElements><tleParameters><EPHEMERIS_TYPE>0</EPHEMERIS_TYPE><CLASSIFICATION_TYPE>U</CLASSIFICATION_TYPE><NORAD_CAT_ID>64831</NORAD_CAT_ID><ELEMENT_SET_NO>999</ELEMENT_SET_NO><REV_AT_EPOCH>306</REV_AT_EPOCH><BSTAR>-.12316E-2</BSTAR><MEAN_MOTION_DOT>-.9515E-4</MEAN_MOTION_DOT><MEAN_MOTION_DDOT>0</MEAN_MOTION_DDOT></tleParameters></data></segment></body></omm>
<omm id="CCSDS_OMM_VERS" version="2.0">
<header><CREATION_DATE/><ORIGINATOR/></header><body><segment><metadata><OBJECT_NAME>KUIPER-00086</OBJECT_NAME><OBJECT_ID>2025-151S</OBJECT_ID><CENTER_NAME>EARTH</CENTER_NAME><REF_FRAME>TEME</REF_FRAME><TIME_SYSTEM>UTC</TIME_SYSTEM><MEAN_ELEMENT_THEORY>SGP4</MEAN_ELEMENT_THEORY></metadata><data><meanElements><EPOCH>2025-10-31T17:55:50.028384</EPOCH><MEAN_MOTION>14.79921415</MEAN_MOTION><ECCENTRICITY>.0011348</ECCENTRICITY><INCLINATION>51.9007</INCLINATION><RA_OF_ASC_NODE>148.2661</RA_OF_ASC_NODE><ARG_OF_PERICENTER>167.8009</ARG_OF_PERICENTER><MEAN_ANOMALY>192.3230</MEAN_ANOMALY></meanElements><tleParameters><EPHEMERIS_TYPE>0</EPHEMERIS_TYPE><CLASSIFICATION_TYPE>U</CLASSIFICATION_TYPE><NORAD_CAT_ID>64832</NORAD_CAT_ID><ELEMENT_SET_NO>999</ELEMENT_SET_NO><REV_AT_EPOCH>1624</REV_AT_EPOCH><BSTAR>.5777E-3</BSTAR><MEAN_MOTION_DOT>.4186E-4</MEAN_MOTION_DOT><MEAN_MOTION_DDOT>0</MEAN_MOTION_DDOT></tleParameters></data></segment></body></omm>
<omm id="CCSDS_OMM_VERS" version="2.0">
<header><CREATION_DATE/><ORIGINATOR/></header><body><segment><metadata><OBJECT_NAME>KUIPER-00087</OBJECT_NAME><OBJECT_ID>2025-151T</OBJECT_ID><CENTER_NAME>EARTH</CENTER_NAME><REF_FRAME>TEME</REF_FRAME><TIME_SYSTEM>UTC</TIME_SYSTEM><MEAN_ELEMENT_THEORY>SGP4</MEAN_ELEMENT_THEORY></metadata><data><meanElements><EPOCH>2025-10-31T20:00:03.000384</EPOCH><MEAN_MOTION>15.03380493</MEAN_MOTION><ECCENTRICITY>.0003391</ECCENTRICITY><INCLINATION>51.8885</INCLINATION><RA_OF_ASC_NODE>131.8498</RA_OF_ASC_NODE><ARG_OF_PERICENTER>181.9228</ARG_OF_PERICENTER><MEAN_ANOMALY>141.8220</MEAN_ANOMALY></meanElements><tleParameters><EPHEMERIS_TYPE>0</EPHEMERIS_TYPE><CLASSIFICATION_TYPE>U</CLASSIFICATION_TYPE><NORAD_CAT_ID>64833</NORAD_CAT_ID><ELEMENT_SET_NO>999</ELEMENT_SET_NO><REV_AT_EPOCH>338</REV_AT_EPOCH><BSTAR>.26653E-3</BSTAR><MEAN_MOTION_DOT>.3391E-4</MEAN_MOTION_DOT><MEAN_MOTION_DDOT>0</MEAN_MOTION_DDOT></tleParameters></data></segment></body></omm>

</ndm>
