KUIPER-00079            
1 64826U 25151L   25304.74872727  .00001079  00000+0  17062-3 0  9993
2 64826  51.8982 150.4482 0012286 168.0711 192.0544 14.79950178 17417
KUIPER-00080            
1 64827U 25151M   25304.74426851  .00004545  00000+0  62502-3 0  9997
2 64827  51.8989 150.7694 0005448 184.3178 175.7738 14.79915894 16219
KUIPER-00082            
1 64828U 25151N   25304.83336806 -.00003236  00000+0 -39529-3 0  9999
2 64828  51.8998 137.8844 0004586 202.5433  20.6634 14.79956566  3739
KUIPER-00083            
1 64829U 25151P   25304.85090675 -.00002964  00000+0 -35934-3 0  9996
2 64829  51.8996 145.3058 0010766 174.7566 185.3511 14.79914184 17483
KUIPER-00084            
1 64830U 25151Q   25304.84017270  .00004457  00000+0  61275-3 0  9991
2 64830  51.8988 155.3397 0012120 146.6408 213.5320 14.79946893 16159
KUIPER-00085            
1 64831U 25151R   25304.83336806 -.00009515  00000+0 -12316-2 0  9993
2 64831  51.9015 137.8917 0007664 176.0379 228.6531 14.79539698  3064
KUIPER-00086            
1 64832U 25151S   25304.74710681  .00004186  00000+0  57770-3 0  9992
2 64832  51.9007 148.2661 0011348 167.8009 192.3230 14.79921415 16249
KUIPER-00087            
1 64833U 25151T   25304.83336806  .00003391  00000+0  26653-3 0  9999
2 64833  51.8885 131.8498 0003391 181.9228 141.8220 15.03380493  3380
